{
  "norad_id": 51811,
  "name": "STARLINK-3569",
  "history": [
    {
      "epoch": "2026-03-28T18:31:05.397600Z",
      "apogee_km": 540.6488597977723,
      "perigee_km": 538.8437073337582,
      "latitude_deg": -3.325063797821415e-05,
      "longitude_deg": 149.498235346811,
      "height_km": 540.5946474300953,
      "semi_major_axis_km": 6917.883283565765,
      "eccentricity": 0.00013047,
      "inclination_deg": 53.2168,
      "raan_deg": 253.458,
      "arg_perigee_deg": 86.992,
      "mean_anomaly_deg": 273.1221,
      "mean_motion_rev_day": 15.08839053
    },
    {
      "epoch": "2026-03-29T04:03:24.265440Z",
      "apogee_km": 540.5882530485214,
      "perigee_km": 538.9256064214496,
      "latitude_deg": 2.2896791254560854e-05,
      "longitude_deg": 4.24372576049229,
      "height_km": 540.6207463430152,
      "semi_major_axis_km": 6917.893929734985,
      "eccentricity": 0.00012017,
      "inclination_deg": 53.2168,
      "raan_deg": 251.6738,
      "arg_perigee_deg": 87.7912,
      "mean_anomaly_deg": 272.3218,
      "mean_motion_rev_day": 15.0883557
    },
    {
      "epoch": "2026-03-30T10:15:43.761312Z",
      "apogee_km": 540.6694003714638,
      "perigee_km": 538.8288275919786,
      "latitude_deg": -2.2078226445485492e-05,
      "longitude_deg": -95.72823190044592,
      "height_km": 540.590064954195,
      "semi_major_axis_km": 6917.886113981721,
      "eccentricity": 0.00013303,
      "inclination_deg": 53.2163,
      "raan_deg": 246.0236,
      "arg_perigee_deg": 86.5933,
      "mean_anomaly_deg": 273.5211,
      "mean_motion_rev_day": 15.08838127
    },
    {
      "epoch": "2026-03-30T19:48:02.255040Z",
      "apogee_km": 540.6615919699352,
      "perigee_km": 538.8026221834825,
      "latitude_deg": -2.9584275428726183e-05,
      "longitude_deg": 119.01897471429884,
      "height_km": 540.7183291947209,
      "semi_major_axis_km": 6917.869107076709,
      "eccentricity": 0.00013436,
      "inclination_deg": 53.2158,
      "raan_deg": 244.2396,
      "arg_perigee_deg": 95.5968,
      "mean_anomaly_deg": 264.5177,
      "mean_motion_rev_day": 15.08843691
    },
    {
      "epoch": "2026-03-31T16:28:03.213984Z",
      "apogee_km": 540.767529345625,
      "perigee_km": 538.7378205150007,
      "latitude_deg": -6.481949806533511e-05,
      "longitude_deg": 164.3001933007938,
      "height_km": 540.7214347391139,
      "semi_major_axis_km": 6917.889674930313,
      "eccentricity": 0.0001467,
      "inclination_deg": 53.2165,
      "raan_deg": 240.3736,
      "arg_perigee_deg": 94.1411,
      "mean_anomaly_deg": 265.9748,
      "mean_motion_rev_day": 15.08836962
    },
    {
      "epoch": "2026-04-01T16:18:50.458752Z",
      "apogee_km": 540.7747996904109,
      "perigee_km": 538.7298716027935,
      "latitude_deg": 2.782904619503957e-06,
      "longitude_deg": 161.16335246041635,
      "height_km": 540.7274183965582,
      "semi_major_axis_km": 6917.889335646602,
      "eccentricity": 0.0001478,
      "inclination_deg": 53.2147,
      "raan_deg": 235.9129,
      "arg_perigee_deg": 94.4777,
      "mean_anomaly_deg": 265.6384,
      "mean_motion_rev_day": 15.08837073
    },
    {
      "epoch": "2026-04-02T16:09:37.209312Z",
      "apogee_km": 540.6204944692026,
      "perigee_km": 538.8583729840038,
      "latitude_deg": 6.014445934659246e-06,
      "longitude_deg": 158.03082818101078,
      "height_km": 540.6771951277276,
      "semi_major_axis_km": 6917.876433726603,
      "eccentricity": 0.00012736,
      "inclination_deg": 53.2177,
      "raan_deg": 231.4545,
      "arg_perigee_deg": 92.726,
      "mean_anomaly_deg": 267.3878,
      "mean_motion_rev_day": 15.08841294
    },
    {
      "epoch": "2026-04-03T14:25:01.427808Z",
      "apogee_km": 540.6114705004757,
      "perigee_km": 538.8833829706764,
      "latitude_deg": -2.0214642858219115e-05,
      "longitude_deg": 179.10264714881382,
      "height_km": 540.6517469969666,
      "semi_major_axis_km": 6917.884426735575,
      "eccentricity": 0.0001249,
      "inclination_deg": 53.2174,
      "raan_deg": 227.2913,
      "arg_perigee_deg": 90.5609,
      "mean_anomaly_deg": 269.5526,
      "mean_motion_rev_day": 15.08838679
    },
    {
      "epoch": "2026-04-05T12:31:13.311840Z",
      "apogee_km": 540.7556203061213,
      "perigee_km": 538.7816651100311,
      "latitude_deg": 3.053517524480626e-05,
      "longitude_deg": -162.96462913114112,
      "height_km": 540.6726067829519,
      "semi_major_axis_km": 6917.905642708076,
      "eccentricity": 0.00014267,
      "inclination_deg": 53.2181,
      "raan_deg": 218.6669,
      "arg_perigee_deg": 90.4809,
      "mean_anomaly_deg": 269.6347,
      "mean_motion_rev_day": 15.08831738
    },
    {
      "epoch": "2026-04-06T01:14:18.381696Z",
      "apogee_km": 540.8023273331673,
      "perigee_km": 538.7214233514633,
      "latitude_deg": 6.030178357776063e-05,
      "longitude_deg": 3.362854836958697,
      "height_km": 540.4922472443388,
      "semi_major_axis_km": 6917.898875342315,
      "eccentricity": 0.0001504,
      "inclination_deg": 53.2179,
      "raan_deg": 216.2878,
      "arg_perigee_deg": 80.8638,
      "mean_anomaly_deg": 279.2525,
      "mean_motion_rev_day": 15.08833952
    },
    {
      "epoch": "2026-04-07T13:48:09.961056Z",
      "apogee_km": 540.6509265592558,
      "perigee_km": 538.8248842992189,
      "latitude_deg": -2.3546934863047013e-05,
      "longitude_deg": 166.55793088066437,
      "height_km": 540.4239092642989,
      "semi_major_axis_km": 6917.8749054292375,
      "eccentricity": 0.00013198,
      "inclination_deg": 53.2201,
      "raan_deg": 209.4495,
      "arg_perigee_deg": 76.696,
      "mean_anomaly_deg": 283.4179,
      "mean_motion_rev_day": 15.08841794
    },
    {
      "epoch": "2026-04-07T16:58:56.070624Z",
      "apogee_km": 540.6846787559052,
      "perigee_km": 538.7850311445354,
      "latitude_deg": -1.2829742418921583e-05,
      "longitude_deg": 118.13983886553966,
      "height_km": 540.4698814045277,
      "semi_major_axis_km": 6917.87185495022,
      "eccentricity": 0.0001373,
      "inclination_deg": 53.2176,
      "raan_deg": 208.8541,
      "arg_perigee_deg": 80.2583,
      "mean_anomaly_deg": 279.8564,
      "mean_motion_rev_day": 15.08842792
    },
    {
      "epoch": "2026-04-08T13:38:57.433056Z",
      "apogee_km": 540.7522787038652,
      "perigee_km": 538.7484434508551,
      "latitude_deg": 6.804504391331663e-06,
      "longitude_deg": 163.41950866708382,
      "height_km": 540.5290214861755,
      "semi_major_axis_km": 6917.88736107736,
      "eccentricity": 0.00014483,
      "inclination_deg": 53.2162,
      "raan_deg": 204.9882,
      "arg_perigee_deg": 83.3049,
      "mean_anomaly_deg": 276.8108,
      "mean_motion_rev_day": 15.08837719
    },
    {
      "epoch": "2026-04-09T13:29:44.227680Z",
      "apogee_km": 540.7572272587995,
      "perigee_km": 538.7215729493046,
      "latitude_deg": 2.8965297486493194e-05,
      "longitude_deg": 160.28381052782873,
      "height_km": 540.6058424060453,
      "semi_major_axis_km": 6917.876400104052,
      "eccentricity": 0.00014713,
      "inclination_deg": 53.2163,
      "raan_deg": 200.5268,
      "arg_perigee_deg": 88.3679,
      "mean_anomaly_deg": 271.7482,
      "mean_motion_rev_day": 15.08841305
    },
    {
      "epoch": "2026-04-10T13:20:31.317792Z",
      "apogee_km": 540.608152507024,
      "perigee_km": 538.891133042287,
      "latitude_deg": 7.272320020966035e-05,
      "longitude_deg": 157.14959424074033,
      "height_km": 540.5959884502523,
      "semi_major_axis_km": 6917.886642774655,
      "eccentricity": 0.0001241,
      "inclination_deg": 53.2181,
      "raan_deg": 196.0681,
      "arg_perigee_deg": 86.6885,
      "mean_anomaly_deg": 273.425,
      "mean_motion_rev_day": 15.08837954
    },
    {
      "epoch": "2026-04-11T13:11:19.093056Z",
      "apogee_km": 540.6245746854902,
      "perigee_km": 538.9075511452738,
      "latitude_deg": -1.4332795278422429e-05,
      "longitude_deg": 154.01141876300198,
      "height_km": 540.6222678669208,
      "semi_major_axis_km": 6917.903062915381,
      "eccentricity": 0.0001241,
      "inclination_deg": 53.2177,
      "raan_deg": 191.6084,
      "arg_perigee_deg": 87.3496,
      "mean_anomaly_deg": 272.7638,
      "mean_motion_rev_day": 15.08832582
    },
    {
      "epoch": "2026-04-13T04:55:57.391968Z",
      "apogee_km": 540.587519900696,
      "perigee_km": 538.9342806604855,
      "latitude_deg": 5.985011185253293e-07,
      "longitude_deg": -91.21537695343845,
      "height_km": 540.6358921350733,
      "semi_major_axis_km": 6917.89790028059,
      "eccentricity": 0.00011949,
      "inclination_deg": 53.2164,
      "raan_deg": 184.1734,
      "arg_perigee_deg": 88.5558,
      "mean_anomaly_deg": 271.5571,
      "mean_motion_rev_day": 15.08834271
    },
    {
      "epoch": "2026-04-14T11:08:16.655424Z",
      "apogee_km": 540.4990140045511,
      "perigee_km": 538.9754213868464,
      "latitude_deg": -1.531230200167889e-05,
      "longitude_deg": 168.81385829954502,
      "height_km": 540.601115231075,
      "semi_major_axis_km": 6917.8742176956985,
      "eccentricity": 0.00011012,
      "inclination_deg": 53.2166,
      "raan_deg": 178.5234,
      "arg_perigee_deg": 87.5863,
      "mean_anomaly_deg": 272.5255,
      "mean_motion_rev_day": 15.08842019
    },
    {
      "epoch": "2026-04-15T10:59:04.276032Z",
      "apogee_km": 540.5408717487462,
      "perigee_km": 538.9819925160482,
      "latitude_deg": 2.5201356576672137e-06,
      "longitude_deg": 165.6760106111346,
      "height_km": 540.6091142327755,
      "semi_major_axis_km": 6917.898432132397,
      "eccentricity": 0.00011267,
      "inclination_deg": 53.2166,
      "raan_deg": 174.0633,
      "arg_perigee_deg": 86.4502,
      "mean_anomaly_deg": 273.6619,
      "mean_motion_rev_day": 15.08834097
    }
  ]
}